{"type": "FeatureCollection", "features": [ {"type": "Feature", "properties": {"norad_id": 40115, "name": "WORLDVIEW-3 (WV-3)", "group": "resource", "lat": -10.292497471923129, "lon": -120.02045688623119, "alt_km": 612.8786891091004, "timestamp": "2025-12-15T04:01:20.099858+00:00", "meta": {"OBJECT_NAME": "WORLDVIEW-3 (WV-3)", "OBJECT_ID": "2014-048A", "EPOCH": "2025-12-14T07:46:09.823584", "MEAN_MOTION": 14.8551734, "ECCENTRICITY": 0.00049239, "INCLINATION": 97.8616, "RA_OF_ASC_NODE": 60.5841, "ARG_OF_PERICENTER": 179.2575, "MEAN_ANOMALY": 180.8648, "EPHEMERIS_TYPE": 0, "CLASSIFICATION_TYPE": "U", "NORAD_CAT_ID": 40115, "ELEMENT_SET_NO": 999, "REV_AT_EPOCH": 61447, "BSTAR": 0.00015727344, "MEAN_MOTION_DOT": 1.305e-05, "MEAN_MOTION_DDOT": 0}, "tle": {"line1": "1 40115U 14048A   25348.32372481  .00001305  00000+0  15727-3 0  9993", "line2": "2 40115  97.8616  60.5841 0004923 179.2575 180.8648 14.85517340614473"}}, "geometry": {"type": "Point", "coordinates": [-120.02045688623119, -10.292497471923129]}}, {"type": "Feature", "properties": {"norad_id": 40118, "name": "GAOFEN-2", "group": "resource", "lat": -34.864918711221755, "lon": 53.990445113522135, "alt_km": 638.3400679910128, "timestamp": "2025-12-15T04:01:20.099868+00:00", "meta": {"OBJECT_NAME": "GAOFEN-2", "OBJECT_ID": "2014-049A", "EPOCH": "2025-12-14T08:43:05.346912", "MEAN_MOTION": 14.80614589, "ECCENTRICITY": 0.00086406, "INCLINATION": 98.0384, "RA_OF_ASC_NODE": 47.5344, "ARG_OF_PERICENTER": 108.2707, "MEAN_ANOMALY": 251.9445, "EPHEMERIS_TYPE": 0, "CLASSIFICATION_TYPE": "U", "NORAD_CAT_ID": 40118, "ELEMENT_SET_NO": 999, "REV_AT_EPOCH": 61188, "BSTAR": 0.00017385873, "MEAN_MOTION_DOT": 1.281e-05, "MEAN_MOTION_DDOT": 0}, "tle": {"line1": "1 40118U 14049A   25348.36325633  .00001281  00000+0  17386-3 0  9994", "line2": "2 40118  98.0384  47.5344 0008640 108.2707 251.9445 14.80614589611888"}}, "geometry": {"type": "Point", "coordinates": [53.990445113522135, -34.864918711221755]}}, {"type": "Feature", "properties": {"norad_id": 40143, "name": "YAOGAN-21", "group": "resource", "lat": -55.3191500608993, "lon": 42.86716547036377, "alt_km": 501.64825767632647, "timestamp": "2025-12-15T04:01:20.099878+00:00", "meta": {"OBJECT_NAME": "YAOGAN-21", "OBJECT_ID": "2014-053A", "EPOCH": "2025-12-14T09:21:14.068224", "MEAN_MOTION": 15.23703675, "ECCENTRICITY": 0.00095928, "INCLINATION": 97.1764, "RA_OF_ASC_NODE": 31.6311, "ARG_OF_PERICENTER": 36.0808, "MEAN_ANOMALY": 324.1075, "EPHEMERIS_TYPE": 0, "CLASSIFICATION_TYPE": "U", "NORAD_CAT_ID": 40143, "ELEMENT_SET_NO": 999, "REV_AT_EPOCH": 62679, "BSTAR": 0.0002743559, "MEAN_MOTION_DOT": 6.528e-05, "MEAN_MOTION_DDOT": 0}, "tle": {"line1": "1 40143U 14053A   25348.38974616  .00006528  00000+0  27436-3 0  9996", "line2": "2 40143  97.1764  31.6311 0009592  36.0808 324.1075 15.23703675626794"}}, "geometry": {"type": "Point", "coordinates": [42.86716547036377, -55.3191500608993]}}, {"type": "Feature", "properties": {"norad_id": 40275, "name": "YAOGAN-22", "group": "resource", "lat": 55.66408027883061, "lon": -31.244319467383722, "alt_km": 1198.6503681130234, "timestamp": "2025-12-15T04:01:20.099888+00:00", "meta": {"OBJECT_NAME": "YAOGAN-22", "OBJECT_ID": "2014-063A", "EPOCH": "2025-12-14T07:19:20.011008", "MEAN_MOTION": 13.155227, "ECCENTRICITY": 0.00059626, "INCLINATION": 100.7422, "RA_OF_ASC_NODE": 131.7467, "ARG_OF_PERICENTER": 244.3462, "MEAN_ANOMALY": 115.7034, "EPHEMERIS_TYPE": 0, "CLASSIFICATION_TYPE": "U", "NORAD_CAT_ID": 40275, "ELEMENT_SET_NO": 999, "REV_AT_EPOCH": 53550, "BSTAR": 4.7633727e-05, "MEAN_MOTION_DOT": -2.9e-07, "MEAN_MOTION_DDOT": 0}, "tle": {"line1": "1 40275U 14063A   25348.30509272 -.00000029  00000+0  47634-4 0  9991", "line2": "2 40275 100.7422 131.7467 0005962 244.3462 115.7034 13.15522700535507"}}, "geometry": {"type": "Point", "coordinates": [-31.244319467383722, 55.66408027883061]}}, {"type": "Feature", "properties": {"norad_id": 40298, "name": "ASNARO", "group": "resource", "lat": -43.916153908671504, "lon": 72.20905666197267, "alt_km": 517.5378495771283, "timestamp": "2025-12-15T04:01:20.099898+00:00", "meta": {"OBJECT_NAME": "ASNARO", "OBJECT_ID": "2014-070A", "EPOCH": "2025-12-14T07:40:18.755328", "MEAN_MOTION": 15.19543545, "ECCENTRICITY": 0.00056794, "INCLINATION": 97.365, "RA_OF_ASC_NODE": 64.2275, "ARG_OF_PERICENTER": 117.1306, "MEAN_ANOMALY": 243.0508, "EPHEMERIS_TYPE": 0, "CLASSIFICATION_TYPE": "U", "NORAD_CAT_ID": 40298, "ELEMENT_SET_NO": 999, "REV_AT_EPOCH": 61593, "BSTAR": 0.0006064078, "MEAN_MOTION_DOT": 0.0001284, "MEAN_MOTION_DDOT": 0}, "tle": {"line1": "1 40298U 14070A   25348.31966152  .00012840  00000+0  60641-3 0  9994", "line2": "2 40298  97.3650  64.2275 0005679 117.1306 243.0508 15.19543545615935"}}, "geometry": {"type": "Point", "coordinates": [72.20905666197267, -43.916153908671504]}}, {"type": "Feature", "properties": {"norad_id": 40310, "name": "YAOGAN-24", "group": "resource", "lat": -81.87269100664003, "lon": -150.16366080068988, "alt_km": 656.6588418707761, "timestamp": "2025-12-15T04:01:20.099909+00:00", "meta": {"OBJECT_NAME": "YAOGAN-24", "OBJECT_ID": "2014-072A", "EPOCH": "2025-12-14T08:54:31.418208", "MEAN_MOTION": 14.76182306, "ECCENTRICITY": 0.00148364, "INCLINATION": 98.1217, "RA_OF_ASC_NODE": 119.4724, "ARG_OF_PERICENTER": 133.11, "MEAN_ANOMALY": 227.1353, "EPHEMERIS_TYPE": 0, "CLASSIFICATION_TYPE": "U", "NORAD_CAT_ID": 40310, "ELEMENT_SET_NO": 999, "REV_AT_EPOCH": 59645, "BSTAR": 0.00017651092, "MEAN_MOTION_DOT": 1.17e-05, "MEAN_MOTION_DDOT": 0}, "tle": {"line1": "1 40310U 14072A   25348.37119697  .00001170  00000+0  17651-3 0  9998", "line2": "2 40310  98.1217 119.4724 0014836 133.1100 227.1353 14.76182306596457"}}, "geometry": {"type": "Point", "coordinates": [-150.16366080068988, -81.87269100664003]}}, {"type": "Feature", "properties": {"norad_id": 40336, "name": "CBERS 4", "group": "resource", "lat": 15.296641548672758, "lon": 44.80421125413167, "alt_km": 774.1522848778341, "timestamp": "2025-12-15T04:01:20.099919+00:00", "meta": {"OBJECT_NAME": "CBERS 4", "OBJECT_ID": "2014-079A", "EPOCH": "2025-12-14T07:52:34.999968", "MEAN_MOTION": 14.35518736, "ECCENTRICITY": 0.0001684, "INCLINATION": 98.3307, "RA_OF_ASC_NODE": 46.2904, "ARG_OF_PERICENTER": 110.503, "MEAN_ANOMALY": 249.6337, "EPHEMERIS_TYPE": 0, "CLASSIFICATION_TYPE": "U", "NORAD_CAT_ID": 40336, "ELEMENT_SET_NO": 999, "REV_AT_EPOCH": 57743, "BSTAR": 9.5366838e-05, "MEAN_MOTION_DOT": 2.32e-06, "MEAN_MOTION_DDOT": 0}, "tle": {"line1": "1 40336U 14079A   25348.32818287  .00000232  00000+0  95367-4 0  9998", "line2": "2 40336  98.3307  46.2904 0001684 110.5030 249.6337 14.35518736577435"}}, "geometry": {"type": "Point", "coordinates": [44.80421125413167, 15.296641548672758]}}, {"type": "Feature", "properties": {"norad_id": 40362, "name": "YAOGAN-26", "group": "resource", "lat": 24.020528203072164, "lon": 172.92391526216997, "alt_km": 450.19285375793606, "timestamp": "2025-12-15T04:01:20.099930+00:00", "meta": {"OBJECT_NAME": "YAOGAN-26", "OBJECT_ID": "2014-088A", "EPOCH": "2025-12-14T07:04:03.107424", "MEAN_MOTION": 15.39374928, "ECCENTRICITY": 0.00059367, "INCLINATION": 97.0643, "RA_OF_ASC_NODE": 348.9135, "ARG_OF_PERICENTER": 24.961, "MEAN_ANOMALY": 335.1923, "EPHEMERIS_TYPE": 0, "CLASSIFICATION_TYPE": "U", "NORAD_CAT_ID": 40362, "ELEMENT_SET_NO": 999, "REV_AT_EPOCH": 60918, "BSTAR": 0.00062202927, "MEAN_MOTION_DOT": 0.00024295, "MEAN_MOTION_DDOT": 0}, "tle": {"line1": "1 40362U 14088A   25348.29448041  .00024295  00000+0  62203-3 0  9997", "line2": "2 40362  97.0643 348.9135 0005936  24.9610 335.1923 15.39374928609185"}}, "geometry": {"type": "Point", "coordinates": [172.92391526216997, 24.020528203072164]}}, {"type": "Feature", "properties": {"norad_id": 40376, "name": "SMAP", "group": "resource", "lat": 76.12188955564903, "lon": -150.79723165602832, "alt_km": 674.3447387786582, "timestamp": "2025-12-15T04:01:20.099940+00:00", "meta": {"OBJECT_NAME": "SMAP", "OBJECT_ID": "2015-003A", "EPOCH": "2025-12-14T07:52:07.118688", "MEAN_MOTION": 14.63347485, "ECCENTRICITY": 0.00012108, "INCLINATION": 98.1291, "RA_OF_ASC_NODE": 353.0288, "ARG_OF_PERICENTER": 90.2849, "MEAN_ANOMALY": 269.8492, "EPHEMERIS_TYPE": 0, "CLASSIFICATION_TYPE": "U", "NORAD_CAT_ID": 40376, "ELEMENT_SET_NO": 999, "REV_AT_EPOCH": 58058, "BSTAR": 0.00015779974, "MEAN_MOTION_DOT": 7.68e-06, "MEAN_MOTION_DDOT": 0}, "tle": {"line1": "1 40376U 15003A   25348.32786017  .00000768  00000+0  15780-3 0  9999", "line2": "2 40376  98.1291 353.0288 0001210  90.2849 269.8492 14.63347485580588"}}, "geometry": {"type": "Point", "coordinates": [-150.79723165602832, 76.12188955564903]}}, {"type": "Feature", "properties": {"norad_id": 40536, "name": "KOMPSAT-3A", "group": "resource", "lat": 42.649502312951675, "lon": 150.78761853450152, "alt_km": 427.3973008391649, "timestamp": "2025-12-15T04:01:20.099950+00:00", "meta": {"OBJECT_NAME": "KOMPSAT-3A", "OBJECT_ID": "2015-014A", "EPOCH": "2025-12-14T08:46:03.292896", "MEAN_MOTION": 15.44020102, "ECCENTRICITY": 0.0005082, "INCLINATION": 97.6785, "RA_OF_ASC_NODE": 322.8017, "ARG_OF_PERICENTER": 123.5984, "MEAN_ANOMALY": 236.5749, "EPHEMERIS_TYPE": 0, "CLASSIFICATION_TYPE": "U", "NORAD_CAT_ID": 40536, "ELEMENT_SET_NO": 999, "REV_AT_EPOCH": 59320, "BSTAR": 0.00044692321, "MEAN_MOTION_DOT": 0.00020325, "MEAN_MOTION_DDOT": 0}, "tle": {"line1": "1 40536U 15014A   25348.36531589  .00020325  00000+0  44692-3 0  9990", "line2": "2 40536  97.6785 322.8017 0005082 123.5984 236.5749 15.44020102593206"}}, "geometry": {"type": "Point", "coordinates": [150.78761853450152, 42.649502312951675]}}]}